QIANFAN-57              
1 62787U 25016C   25278.16738440  .00000097  00000+0  13156-3 0  9995
2 62787  88.9752 110.2809 0001856  60.2827 299.8508 13.50974160 37947
QIANFAN-58              
1 62788U 25016D   25278.13852147  .00000093  00000+0  12513-3 0  9996
2 62788  88.9722 110.1367 0013805 174.3937 185.7371 13.50973709 37982
QIANFAN-59              
1 62789U 25016E   25278.16318657  .00000105  00000+0  14462-3 0  9992
2 62789  88.9745 110.1915 0014064 178.2943 181.8258 13.50972945 37987
QIANFAN-60              
1 62790U 25016F   25273.45632892  .00000063  00000+0  77135-4 0  9991
2 62790  88.9732 110.6637 0014892 189.3455 170.7422 13.52524324 37336
QIANFAN-61              
1 62791U 25016G   25278.15493701  .00000092  00000+0  12390-3 0  9991
2 62791  88.9794 110.2931 0014666 174.3830 185.7488 13.50973274 37987
QIANFAN-62              
1 62792U 25016H   25278.15913288  .00000089  00000+0  11942-3 0  9997
2 62792  88.9740 110.1982 0016019 175.3429 184.7874 13.50967222 37976
QIANFAN-63              
1 62793U 25016J   25278.18374287  .00000092  00000+0  12401-3 0  9996
2 62793  88.9747 110.1426 0015927 180.6539 179.4594 13.50970108 38018
QIANFAN-64              
1 62794U 25016K   25278.15083258  .00000089  00000+0  11947-3 0  9999
2 62794  88.9733 110.1293 0014089 172.7650 187.3707 13.50971824 38009
